OCEANSAT-2              
1 35931U 09051A   26176.84933911 -.00000219  00000+0 -12376-3 0  9991
2 35931  98.2320 162.8364 0015934 209.9910 150.0345 13.99661820880547
WORLDVIEW-2 (WV-2)      
1 35946U 09055A   26176.86204981  .00000088  00000+0  43607-4 0  9995
2 35946  98.4735 250.1919 0004256 180.5821 179.5362 14.37901662876894
SMOS                    
1 36036U 09059A   26176.52899066  .00000255  00000+0  95077-4 0  9991
2 36036  98.4426   3.7417 0001317  88.8020 271.3319 14.39776827874653
YAOGAN-7                
1 36110U 09069A   26176.68659134  .00000468  00000+0  71924-4 0  9993
2 36110  98.0063  62.5008 0024989  15.1643 345.0311 14.78017696890881
TANDEM-X                
1 36605U 10030A   26175.56897165  .00000223  00000+0  13790-4 0  9992
2 36605  97.4453 183.1708 0001789  93.6569 266.4871 15.19149086887769
CARTOSAT-2B             
1 36795U 10035A   26176.86606462  .00000521  00000+0  78206-4 0  9993
2 36795  97.9954 227.3609 0011916 155.9659 204.2110 14.78670866861134
YAOGAN-10               
1 36834U 10038A   26176.91720089  .00001865  00000+0  22293-3 0  9994
2 36834  97.8979 200.2517 0001753  86.9510  31.2857 14.85373669858501
COSMO-SKYMED 4          
1 37216U 10060A   26176.81505383  .00000985  00000+0  13033-3 0  9995
2 37216  97.8894   0.2901 0001503  88.3549 271.7837 14.82153726845847
RESOURCESAT-2           
1 37387U 11015A   26176.81648544  .00000081  00000+0  57344-4 0  9993
2 37387  98.7641 244.1986 0010478 228.1558 131.8725 14.21601739787407
HAIYANG-2A              
1 37781U 11043A   26176.84760959 -.00000091  00000+0 -51031-4 0  9990
2 37781  99.3396 179.3302 0005060  77.1648 283.0066 13.74097359747849
RASAT                   
1 37791U 11044D   26176.84759124  .00000483  00000+0  92241-4 0  9995
2 37791  98.0574 268.1126 0020831 161.2009 338.0244 14.68173489794455
SRMSAT                  
1 37841U 11058D   26176.55515866  .00000372  00000+0  58142-4 0  9996
2 37841  19.9735   8.8199 0011710 296.2835  90.0618 14.11577173759001
PLEIADES 1A             
1 38012U 11076F   26176.85210646  .00000262  00000+0  66181-4 0  9998
2 38012  98.1975 251.8389 0001755  90.4397  44.8144 14.58535512773259
ZIYUAN 1-02C (ZY 1-02C) 
1 38038U 11079A   26176.85494418  .00000257  00000+0  98780-4 0  9994
2 38038  98.4071 243.9826 0005177 285.8416 205.6940 14.38220430760456
ARIRANG-3 (KOMPSAT-3)   
1 38338U 12025B   26176.86023698  .00000407  00000+0  89989-4 0  9996
2 38338  98.1174 134.1706 0006824  87.8198 272.3785 14.62213170752612
EXACTVIEW-1 (ADS-1B)    
1 38709U 12039C   26176.80711752  .00000098  00000+0  61638-4 0  9999
2 38709  98.9786 294.3923 0011578 142.6644 217.5341 14.24986957723939
SPOT 6                  
1 38755U 12047A   26176.84162480 -.00000029  00000+0  37133-5 0  9990
2 38755  98.2118 244.0498 0001350  73.2073 286.9274 14.58526430734315
PLEIADES 1B             
1 39019U 12068A   26176.86050881  .00000283  00000+0  70795-4 0  9991
2 39019  98.1946 251.7930 0001703  86.2220 273.9174 14.58565166722112
GOKTURK 2               
1 39030U 12073A   26176.82865242  .00000292  00000+0  49743-4 0  9990
2 39030  97.6823  13.8271 0001277  56.7927 303.3405 14.75549631725789
LANDSAT 8               
1 39084U 13008A   26176.81452091  .00000283  00000+0  72940-4 0  9996
2 39084  98.2299 246.8473 0001360  93.5461 266.5892 14.57099733699153
SARAL                   
1 39086U 13009A   26176.83957365  .00000082  00000+0  46049-4 0  9993
2 39086  98.5558   3.2971 0000673 238.0562 122.0557 14.32857873696845
GAOFEN-1                
1 39150U 13018A   26176.87272260  .00000096  00000+0  21077-4 0  9992
2 39150  97.9093 248.7644 0015819 236.0906 123.8800 14.76543370709527
VNREDSAT 1              
1 39160U 13021B   26176.83229904  .00000399  00000+0  83152-4 0  9998
2 39160  97.9080 229.9170 0001739  85.2238 274.9165 14.64864197701554
ARIRANG-5 (KOMPSAT-5)   
1 39227U 13042A   26176.81227922  .00001454  00000+0  10817-3 0  9991
2 39227  97.6191   3.3913 0005143 102.1025 258.0778 15.04508715705152
SKYSAT-A                
1 39418U 13066C   26176.72274191  .00002920  00000+0  16824-3 0  9992
2 39418  97.3812 225.8478 0019665 285.7521  74.1541 15.13017920689778
DUBAISAT-2              
1 39419U 13066D   26176.88308299  .00004639  00000+0  28703-3 0  9995
2 39419  97.4567 166.7989 0011521  14.0487 346.1061 15.10242902687701
GPM-CORE                
1 39574U 14009C   26176.82043052  .00012210  00000+0  26413-3 0  9992
2 39574  64.9720 279.2094 0011473 255.0988 104.8882 15.44745419699148
SENTINEL-1A             
1 39634U 14016A   26176.87034447 -.00000282  00000+0 -50070-4 0  9995
2 39634  98.1783 184.2761 0001391  82.2436 277.8922 14.59199347651282
KAZEOSAT 1              
1 39731U 14024A   26176.83353209  .00000070  00000+0  34385-4 0  9992
2 39731  98.3206 249.0660 0001239  75.1689 284.9638 14.42082680639802
ALOS-2                  
1 39766U 14029A   26176.86380778  .00000820  00000+0  11674-3 0  9997
2 39766  97.9218 273.9033 0001627  88.8619 271.2779 14.79468555652868
KAZEOSAT 2              
1 40010U 14033A   26176.85213281  .00001077  00000+0  13063-3 0  9998
2 40010  97.5410  16.0063 0007168 297.1754  62.8731 14.85480679650242
