OBJECT_NAME,OBJECT_ID,EPOCH,MEAN_MOTION,ECCENTRICITY,INCLINATION,RA_OF_ASC_NODE,ARG_OF_PERICENTER,MEAN_ANOMALY,EPHEMERIS_TYPE,CLASSIFICATION_TYPE,NORAD_CAT_ID,ELEMENT_SET_NO,REV_AT_EPOCH,BSTAR,MEAN_MOTION_DOT,MEAN_MOTION_DDOT
OCEANSAT-2,2009-051A,2026-06-25T20:23:02.899104,13.99661820,.0015934,98.2320,162.8364,209.9910,150.0345,0,U,35931,999,88054,-.12376E-3,-.219E-5,0
WORLDVIEW-2 (WV-2),2009-055A,2026-06-25T20:41:21.103584,14.37901662,.0004256,98.4735,250.1919,180.5821,179.5362,0,U,35946,999,87689,.43607E-4,.88E-6,0
SMOS,2009-059A,2026-06-25T12:41:44.793024,14.39776827,.0001317,98.4426,3.7417,88.8020,271.3319,0,U,36036,999,87465,.95077E-4,.255E-5,0
YAOGAN-7,2009-069A,2026-06-25T16:28:41.491776,14.78017696,.0024989,98.0063,62.5008,15.1643,345.0311,0,U,36110,999,89088,.71924E-4,.468E-5,0
TANDEM-X,2010-030A,2026-06-24T13:39:19.150560,15.19149086,.0001789,97.4453,183.1708,93.6569,266.4871,0,U,36605,999,88776,.13790195E-4,.223E-5,0
CARTOSAT-2B,2010-035A,2026-06-25T20:47:07.983168,14.78670866,.0011916,97.9954,227.3609,155.9659,204.2110,0,U,36795,999,86113,.78206E-4,.521E-5,0
YAOGAN-10,2010-038A,2026-06-25T22:00:46.156896,14.85373669,.0001753,97.8979,200.2517,86.9510,31.2857,0,U,36834,999,85850,.22293E-3,.1865E-4,0
COSMO-SKYMED 4,2010-060A,2026-06-25T19:33:40.650912,14.82153726,.0001503,97.8894,0.2901,88.3549,271.7837,0,U,37216,999,84584,.13033E-3,.985E-5,0
RESOURCESAT-2,2011-015A,2026-06-25T19:35:44.342016,14.21601739,.0010478,98.7641,244.1986,228.1558,131.8725,0,U,37387,999,78740,.57344E-4,.81E-6,0
HAIYANG-2A,2011-043A,2026-06-25T20:20:33.468576,13.74097359,.000506,99.3396,179.3302,77.1648,283.0066,0,U,37781,999,74784,-.51031E-4,-.91E-6,0
RASAT,2011-044D,2026-06-25T20:20:31.883136,14.68173489,.0020831,98.0574,268.1126,161.2009,338.0244,0,U,37791,999,79445,.92241E-4,.483E-5,0
SRMSAT,2011-058D,2026-06-25T13:19:25.708224,14.11577173,.001171,19.9735,8.8199,296.2835,90.0618,0,U,37841,999,75900,.58142E-4,.372E-5,0
PLEIADES 1A,2011-076F,2026-06-25T20:27:01.998144,14.58535512,.0001755,98.1975,251.8389,90.4397,44.8144,0,U,38012,999,77325,.66181E-4,.262E-5,0
ZIYUAN 1-02C (ZY 1-02C),2011-079A,2026-06-25T20:31:07.177152,14.38220430,.0005177,98.4071,243.9826,285.8416,205.6940,0,U,38038,999,76045,.9878E-4,.257E-5,0
ARIRANG-3 (KOMPSAT-3),2012-025B,2026-06-25T20:38:44.475072,14.62213170,.0006824,98.1174,134.1706,87.8198,272.3785,0,U,38338,999,75261,.89989E-4,.407E-5,0
EXACTVIEW-1 (ADS-1B),2012-039C,2026-06-25T19:22:14.953728,14.24986957,.0011578,98.9786,294.3923,142.6644,217.5341,0,U,38709,999,72393,.61638E-4,.98E-6,0
SPOT 6,2012-047A,2026-06-25T20:11:56.382720,14.58526430,.000135,98.2118,244.0498,73.2073,286.9274,0,U,38755,999,73431,.37133E-5,-.29E-6,0
PLEIADES 1B,2012-068A,2026-06-25T20:39:07.961184,14.58565166,.0001703,98.1946,251.7930,86.2220,273.9174,0,U,39019,999,72211,.70795E-4,.283E-5,0
GOKTURK 2,2012-073A,2026-06-25T19:53:15.569088,14.75549631,.0001277,97.6823,13.8271,56.7927,303.3405,0,U,39030,999,72578,.49743E-4,.292E-5,0
LANDSAT 8,2013-008A,2026-06-25T19:32:54.606624,14.57099733,.000136,98.2299,246.8473,93.5461,266.5892,0,U,39084,999,69915,.7294E-4,.283E-5,0
SARAL,2013-009A,2026-06-25T20:08:59.163360,14.32857873,.0000673,98.5558,3.2971,238.0562,122.0557,0,U,39086,999,69684,.46049E-4,.82E-6,0
GAOFEN-1,2013-018A,2026-06-25T20:56:43.232640,14.76543370,.0015819,97.9093,248.7644,236.0906,123.8800,0,U,39150,999,70952,.21077E-4,.96E-6,0
VNREDSAT 1,2013-021B,2026-06-25T19:58:30.637056,14.64864197,.0001739,97.9080,229.9170,85.2238,274.9165,0,U,39160,999,70155,.83152E-4,.399E-5,0
ARIRANG-5 (KOMPSAT-5),2013-042A,2026-06-25T19:29:40.924608,15.04508715,.0005143,97.6191,3.3913,102.1025,258.0778,0,U,39227,999,70515,.10817E-3,.1454E-4,0
SKYSAT-A,2013-066C,2026-06-25T17:20:44.901024,15.13017920,.0019665,97.3812,225.8478,285.7521,74.1541,0,U,39418,999,68977,.16824E-3,.292E-4,0
DUBAISAT-2,2013-066D,2026-06-25T21:11:38.370336,15.10242902,.0011521,97.4567,166.7989,14.0487,346.1061,0,U,39419,999,68770,.28703E-3,.4639E-4,0
GPM-CORE,2014-009C,2026-06-25T19:41:25.196928,15.44745419,.0011473,64.9720,279.2094,255.0988,104.8882,0,U,39574,999,69914,.26413E-3,.1221E-3,0
SENTINEL-1A,2014-016A,2026-06-25T20:53:17.762208,14.59199347,.0001391,98.1783,184.2761,82.2436,277.8922,0,U,39634,999,65128,-.5007E-4,-.282E-5,0
KAZEOSAT 1,2014-024A,2026-06-25T20:00:17.172576,14.42082680,.0001239,98.3206,249.0660,75.1689,284.9638,0,U,39731,999,63980,.34385E-4,.7E-6,0
ALOS-2,2014-029A,2026-06-25T20:43:52.992192,14.79468555,.0001627,97.9218,273.9033,88.8619,271.2779,0,U,39766,999,65286,.11674E-3,.82E-5,0
KAZEOSAT 2,2014-033A,2026-06-25T20:27:04.274784,14.85480679,.0007168,97.5410,16.0063,297.1754,62.8731,0,U,40010,999,65024,.13063E-3,.1077E-4,0
